{
  "norad_id": 68559,
  "name": "STARLINK-37294",
  "history": [
    {
      "epoch": "2026-04-09T20:00:01.999008Z",
      "apogee_km": 272.4351656780027,
      "perigee_km": 271.48553177660506,
      "latitude_deg": -28.358139757655007,
      "longitude_deg": 66.98735593331556,
      "height_km": 280.46107822046963,
      "semi_major_axis_km": 6650.097348727304,
      "eccentricity": 7.14e-05,
      "inclination_deg": 53.1587,
      "raan_deg": 228.7812,
      "arg_perigee_deg": 51.7827,
      "mean_anomaly_deg": 272.1057,
      "mean_motion_rev_day": 16.00887294
    }
  ]
}