STARLINK-37294          
1 68559U 26070T   26099.83335647 -.00996927  33351-3 -18012-2 0  9999
2 68559  53.1587 228.7812 0000714  51.7827 272.1057 16.00887294  2388
